#dP2021 11  3  0  0  0.00000000      96 __u+U ITR00 FIT  IAC
## 2182 259200.00000000   900.00000000 59521 0.0000000000000
+  113   C06C07C08C09C10C11C12C13C14C16C19C20C21C22C23C24C25
+        C26C27C28C29C30C32C33C34C35C36C37C38C39C40C41C42C43
+        C44C45C46E01E02E03E04E05E07E08E09E11E12E13E14E15E18
+        E19E21E24E25E26E27E31E33E36G01G02G03G04G05G06G07G08
+        G09G10G11G12G13G14G15G16G17G18G19G20G21G22G23G24G25
+        G26G27G28G29G30G31G32R01R02R03R04R05R07R08R09R11R12
+        R13R14R15R16R17R18R19R20R21R22R24  0  0  0  0  0  0
++         7  7  7  7  7  7  7  7  7  7  7  6  8  8  6  6  6
++         6  7  7  8  7  5  5  7  8  6  6  8  6  9  7  6  6
++         7  8  7  5  7  5  6  7  8  7  6  6  7  7  6  6  7
++         7  7  8  8  8  7  5  7  7  7  6  6  7  7  7  7  6
++         8  6  7  7  6  7  7  6  6  7  6  6  7  7  6  6  7
++         8  6  6  7  6  6  6  6  6  6  7  6  6  5  7  7  5
++         7  6  7  7  6  5  8  8  7  7  7  0  0  0  0  0  0
%c M  cc GPS ccc cccc cccc cccc cccc ccccc ccccc ccccc ccccc
%c cc cc ccc ccc cccc cccc cccc cccc ccccc ccccc ccccc ccccc
%f  0.0000000  0.000000000  0.00000000000  0.000000000000000
%f  0.0000000  0.000000000  0.00000000000  0.000000000000000
%i    0    0    0    0      0      0      0      0         0
%i    0    0    0    0      0      0      0      0         0
/* INFORMATION & ANALYSIS CENTER (IAC)      ULTRA-RAPID DATA
/* S/V CLOCKS ARE ALIGNED TO GNSS TIME                      
/* G:C1WC2W R:C1PC2P E:C1XC5X C:C2IC6I J:C1CC2S             
/* PCV:IGS14_2163 OL/AL:FES2004  NONE     YN ORB:CoN CLK:CoN
*  2021 11 03 11 45  0.00000000
PC06 -18027.210067  33208.748560  18513.760961    431.822402
PC07  -4769.623126  37527.094860  18764.415473   -288.564669
PC08  -5529.857334  20352.969002 -36506.764887   -803.986073
PC09 -11099.077982  31837.310595  25339.684223   -236.596755
PC10   1797.382167  40546.603202  12539.242239     10.391744
PC11   8779.942725  12513.450429 -23279.232832    668.695188
PC12  -8989.623925  20864.183780 -16184.047495    729.287615
PC13   1240.538732  23278.306827 -34983.490739    463.209044
PC14  11367.825734  23304.810411  10394.942999    552.975252
PC16 -21521.406486  32928.168582  14986.645913   -737.238462
PC19 -15124.967674 -15234.971122 -17807.651049    940.165835
PC20  -6791.117474 -26883.094233  -3035.731284   -790.782817
PC21  -6143.022566  23090.830223 -14422.690185   -933.985958
PC22 -15025.209569   5693.131242 -22826.059801   -964.161651
PC23  24739.323999   -531.378813 -12884.216998   -968.646329
PC24   9434.567115  18110.438669  19001.486355   -966.322650
PC25  25142.974711  11517.086749   3630.783657   -830.310384
PC26  -9349.646831  13710.293891  22432.263619    827.049063
PC27  16578.234220 -20790.954585   8466.438294    623.537541
PC28  23913.663208 -11092.428039  -9137.707811     -7.229738
PC29 -17390.026687  -4493.354051  21354.169727    469.259501
PC30   -535.413957 -18600.868425  20798.343666    485.267292
PC32   6034.442505 -23075.563203  14488.011340   -965.556210
PC33  15214.525200  15254.396999  17737.375853   -971.039677
PC34   1426.131386  18172.907245 -21131.556428   -545.278680
PC35 -23534.509185  11543.854672   9527.225707    -16.413107
PC36 -24714.771705 -12324.317807  -4013.511565   -794.129893
PC37  10658.744376 -12987.757196 -22258.774783   -884.380747
PC38 -15619.746987  19206.939004 -34145.771984    186.834249
PC39 -24018.141919  33340.271830   9073.532109     33.877024
PC40  -8633.489846  34257.384623  23130.879340    214.352079
PC41  15164.908820  -5300.760552  22858.516739   -917.926966
PC42   6307.706404  27102.980992   2211.714723   -949.226187
PC43  17039.714480   5181.375979 -21492.243848   -963.147620
PC44 -15933.401667  21348.214935  -8274.794519    453.572771
PC45 -24650.779619    642.645889  13096.922888    591.015719
PC46 -10848.278156 -17998.126633 -18375.135834      9.864141
PE01   7573.731860 -15841.878138 -23822.409114   -509.204776
PE02  -7472.501934  15935.748958  23801.392435    257.814770
PE03 -13291.428373  25741.065563  -6115.991911   -492.020397
PE04    224.823067 -27067.273499 -11982.655494   -891.634258
PE05 -18774.154073   9259.796137 -20933.733675   -236.806632
PE07  13253.656260  12409.950537  23375.810661   -603.003687
PE08    101.323374  26903.975883  12347.649820   5911.111730
PE09 -13293.464145 -12077.816069 -23531.424156   5476.281150
PE11 -22720.264166  -7032.445724  17613.490121   5151.416921
PE12  -2406.171333 -15990.054997  24795.001731   4928.499673
PE13  22315.670218   7250.089382 -18035.688890    423.299945
PE14  11942.141901  18418.047118 -23910.532492  -1627.335915
PE15   2366.120004  15916.856444 -24836.353030    783.079200
PE18 -12430.977359  -8594.447162  18251.158014  -1788.198298
PE19  14483.093461 -24422.632932   8367.411878    418.314117
PE21  20400.641519   1303.690728 -21398.304816   -697.393853
PE24 -21732.083694 -19356.840560   5478.511290  -1206.129626
PE25 -20514.012084  -1534.873896  21299.446978   -552.275720
PE26  28937.828287  -6180.584066    381.143470   1154.974544
PE27  22109.513162  18561.045909  -6503.563348   -156.625312
PE31 -10828.673731 -24762.974680 -12066.093723   -487.591498
PE33  18898.678538 -15179.960764  16991.677989   -462.980170
PE36 -29053.698198   5634.009661    668.731727   -284.965049
PG01  10755.842212  13360.656699 -20647.252465    521.170514
PG02  13288.095369 -14487.453568  18560.999698   -640.407883
PG03  12385.922827  23386.156305  -2951.230553     -4.796049
PG04   3960.633314  18841.817586  18266.115640   -202.634211
PG05  -1754.091729 -21480.257317  15254.096298    -59.820435
PG06  24692.792139  -6087.097896   7822.863136    109.120250
PG07  23794.340113   6809.122984  10652.064035    272.579031
PG08  -4538.109058  24108.782382  -9770.404266    -42.631902
PG09  13005.790838   8224.732825  21573.898572   -361.881660
PG10 -17790.107644  -3196.063514 -19438.281982   -237.908630
PG11  15853.226733 -12000.453158  17594.709430     20.586465
PG12  -9673.880941 -24459.005723  -4432.634912   -120.917358
PG13  12516.351200 -22932.136621  -4455.615833    209.072955
PG14  17823.557703   3453.691830 -19405.147179    -31.388800
PG15    986.822985 -24424.606213 -10364.083175   -109.219741
PG16  -3291.682881  19471.576669  17282.248067   -417.854770
PG17  17882.760781  -5801.425531 -18331.571537    528.416338
PG18 -24306.996598  -5800.847045   9135.548202    301.174912
PG19  19227.508524 -13091.535064 -12927.411320     74.357266
PG20   7073.390239 -14993.249181  20774.742223    518.315275
PG21   1699.592894  14832.646444 -21279.594433    149.862861
PG22   8319.625324  22975.066115 -10489.204714   -473.734419
PG23 -19286.844314 -13831.004824 -12030.658986     37.350159
PG24  -6435.506328 -15041.611560 -21247.448770    262.726924
PG25 -16958.230995 -19917.040760   5121.973628    234.733854
PG26 -12992.938771   8706.982798  21405.122951    151.578049
PG27 -12048.465175  23437.000870   -345.052539   -214.532142
PG28  14453.083694  -3867.875828 -21388.169248    470.122536
PG29  -9249.389546 -12344.575398  21569.982263   -435.400437
PG30  26685.697629   -499.096527    -17.235745   -488.150334
PG31 -23979.400085   7087.343972   9518.009595   -148.263784
PG32 -18151.757193   9917.922065 -16444.194173    -17.480479
PR01   9031.429652  14980.373496  18562.396335     87.606127
PR02  10640.297776  -6820.655644  22201.066999    498.832858
PR03   5791.675845 -22114.261871  11414.191526     45.806488
PR04  -2142.569334 -24794.619473  -5608.931558    112.447064
PR05  -8847.239404 -13829.735433 -19530.316787     81.808836
PR07  -5495.561030  22437.217269 -10732.900190    -40.216528
PR08   2306.704652  24736.500333   5766.992975    -61.813130
PR09 -19563.276592  -2040.372262  16218.735756     21.608189
PR11  10946.158064  15574.715161  16997.729973     50.666505
PR12  21888.640556  13074.562726    231.475448    275.375754
PR13  19983.871526   2930.485181 -15589.333929    -63.018907
PR14   5701.913060  -9512.860810 -22955.468502     70.621908
PR15 -11295.365997 -15872.448179 -16444.495162    100.437860
PR16 -22557.691944 -12015.785071   1048.899949    -24.364611
PR17  17154.221654 -15200.540906  11156.429796    471.700982
PR18   2521.191645 -12606.458553  22057.419147     95.942232
PR19 -12687.432449  -4344.780912  21704.196814   -165.581693
PR20 -23095.502826   8207.950441   7015.817118    -58.682805
PR21 -16373.888335  15210.404209 -12327.176881   -251.713860
PR22  -1518.154037  12119.351596 -22389.291604   -142.876771
PR24  23043.218199  -8955.384055  -6214.408734     65.430474
EOF
